[{"OBJECT_NAME":"POLAR SCOUT KODIAK","OBJECT_ID":"2018-099G","EPOCH":"2026-03-09T17:58:50.690784","MEAN_MOTION":15.56322865,"ECCENTRICITY":0.00067104,"INCLINATION":97.426,"RA_OF_ASC_NODE":147.1007,"ARG_OF_PERICENTER":221.8259,"MEAN_ANOMALY":138.2483,"EPHEMERIS_TYPE":0,"CLASSIFICATION_TYPE":"U","NORAD_CAT_ID":43764,"ELEMENT_SET_NO":999,"REV_AT_EPOCH":39937,"BSTAR":0.001157319,"MEAN_MOTION_DOT":0.00082126,"MEAN_MOTION_DDOT":0},{"OBJECT_NAME":"STARLINK-1212","OBJECT_ID":"2020-012AX","EPOCH":"2026-03-10T00:00:02.999808","MEAN_MOTION":15.52195676,"ECCENTRICITY":0.00060327,"INCLINATION":53.0499,"RA_OF_ASC_NODE":348.596,"ARG_OF_PERICENTER":115.9645,"MEAN_ANOMALY":356.8868,"EPHEMERIS_TYPE":0,"CLASSIFICATION_TYPE":"U","NORAD_CAT_ID":45223,"ELEMENT_SET_NO":999,"REV_AT_EPOCH":585,"BSTAR":0.0014830065,"MEAN_MOTION_DOT":0.00092073,"MEAN_MOTION_DDOT":0}]
